NORAD_CAT_ID,OBJECT_NAME,OBJECT_TYPE,EPOCH,MEAN_MOTION,ECCENTRICITY,INCLINATION,RA_OF_ASC_NODE,ARG_OF_PERICENTER,MEAN_ANOMALY,BSTAR,MEAN_MOTION_DOT,MEAN_MOTION_DDOT,TLE_LINE0,TLE_LINE1,TLE_LINE2,SEMIMAJOR_AXIS,PERIOD,APOGEE,PERIGEE,DECAYED
52346.0,STARLINK-3812,PAYLOAD,2023-06-04 20:55:40,15.08838262,0.0001092,53.2162,47.887,98.8515,261.26,7.7229e-05,9.41e-06,0.0,0 STARLINK-3812,1 52346U 22045R   23155.87199759  .00000941  00000-0  77229-4 0  9999,2 52346  53.2162  47.8870 0001092  98.8515 261.2600 15.08838262 63484,6917.886,95.438,540.506,538.995,0.0
52346.0,STARLINK-3812,PAYLOAD,2023-06-05 03:17:12,15.08846803,0.0001074,53.2161,46.6981,97.9722,262.1392,0.00018516,2.661e-05,0.0,0 STARLINK-3812,1 52346U 22045R   23156.13695308  .00002661  00000-0  18516-3 0  9994,2 52346  53.2161  46.6981 0001074  97.9722 262.1392 15.08846803 63526,6917.86,95.437,540.468,538.982,0.0
52346.0,STARLINK-3812,PAYLOAD,2023-06-05 17:35:41,15.08839811,0.0001033,53.2164,44.022,94.5482,265.5628,-1.0281e-05,-4.51e-06,0.0,0 STARLINK-3812,1 52346U 22045R   23156.73311697 -.00000451  00000-0 -10281-4 0  9995,2 52346  53.2164  44.0220 0001033  94.5482 265.5628 15.08839811 63618,6917.881,95.438,540.461,539.031,0.0
52346.0,STARLINK-3812,PAYLOAD,2023-06-06 01:32:36,15.08847707,0.0001076,53.2163,42.5347,97.4967,262.6147,0.00010551,1.392e-05,0.0,0 STARLINK-3812,1 52346U 22045R   23157.06431153  .00001392  00000-0  10551-3 0  9994,2 52346  53.2163  42.5347 0001076  97.4967 262.6147 15.08847707 63669,6917.857,95.437,540.466,538.977,0.0
52346.0,STARLINK-3812,PAYLOAD,2023-06-06 11:04:55,15.08840734,0.0001104,53.2157,40.7497,95.8946,264.2172,9.9222e-06,-1.3e-06,0.0,0 STARLINK-3812,1 52346U 22045R   23157.46175515 -.00000130  00000-0  99222-5 0  9999,2 52346  53.2157  40.7497 0001104  95.8946 264.2172 15.08840734 63725,6917.878,95.438,540.507,538.979,0.0
52346.0,STARLINK-3812,PAYLOAD,2023-06-07 10:55:42,15.08838503,0.0001078,53.2161,36.2903,89.6855,270.4261,-1.6643e-05,-5.53e-06,0.0,0 STARLINK-3812,1 52346U 22045R   23158.45535838 -.00000553  00000-0 -16643-4 0  9992,2 52346  53.2161  36.2903 0001078  89.6855 270.4261 15.08838503 63877,6917.885,95.438,540.496,539.004,0.0
52346.0,STARLINK-3812,PAYLOAD,2023-06-07 17:17:15,15.08846974,0.0001345,53.2169,35.101,100.4921,259.6223,-0.0001449,-2.594e-05,0.0,0 STARLINK-3812,1 52346U 22045R   23158.72032153 -.00002594  00000-0 -14490-3 0  9998,2 52346  53.2169  35.1010 0001345 100.4921 259.6223 15.08846974 63918,6917.859,95.437,540.655,538.794,0.0
52346.0,STARLINK-3812,PAYLOAD,2023-06-07 22:03:25,15.08839215,9.5e-05,53.217,34.2084,92.3406,267.7695,2.9532e-05,1.82e-06,0.0,0 STARLINK-3812,1 52346U 22045R   23158.91904142  .00000182  00000-0  29532-4 0  9998,2 52346  53.2170  34.2084 0000950  92.3406 267.7695 15.08839215 63945,6917.883,95.438,540.405,539.091,0.0
52346.0,STARLINK-3812,PAYLOAD,2023-06-08 01:14:11,15.08842396,9.99e-05,53.2165,33.6132,90.1646,269.946,7.1032e-05,8.43e-06,0.0,0 STARLINK-3812,1 52346U 22045R   23159.05151834  .00000843  00000-0  71032-4 0  9992,2 52346  53.2165  33.6132 0000999  90.1646 269.9460 15.08842396 63961,6917.873,95.437,540.429,539.047,0.0
52346.0,STARLINK-3812,PAYLOAD,2023-06-09 01:04:57,15.08853389,0.0001143,53.217,29.1513,101.1205,258.9915,6.5195e-05,7.5e-06,0.0,0 STARLINK-3812,1 52346U 22045R   23160.04511107  .00000750  00000-0  65195-4 0  9996,2 52346  53.2170  29.1513 0001143 101.1205 258.9915 15.08853389 64111,6917.839,95.437,540.495,538.914,0.0
52346.0,STARLINK-3812,PAYLOAD,2023-06-09 21:44:59,15.08840111,0.0001102,53.217,25.2883,84.6503,275.4615,7.5964e-05,9.21e-06,0.0,0 STARLINK-3812,1 52346U 22045R   23160.90624118  .00000921  00000-0  75964-4 0  9993,2 52346  53.2170  25.2883 0001102  84.6503 275.4615 15.08840111 64243,6917.88,95.438,540.507,538.983,0.0
52346.0,STARLINK-3812,PAYLOAD,2023-06-10 12:03:27,15.08837668,0.0001109,53.2171,22.6114,90.9878,269.1241,5.9798e-05,6.64e-06,0.0,0 STARLINK-3812,1 52346U 22045R   23161.50240373  .00000664  00000-0  59798-4 0  9998,2 52346  53.2171  22.6114 0001109  90.9878 269.1241 15.08837668 64332,6917.888,95.438,540.52,538.985,0.0
52346.0,STARLINK-3812,PAYLOAD,2023-06-10 21:35:45,15.08847383,0.0001119,53.2171,20.8274,90.1244,269.9876,4.9194e-05,4.95e-06,0.0,0 STARLINK-3812,1 52346U 22045R   23161.89983777  .00000495  00000-0  49194-4 0  9993,2 52346  53.2171  20.8274 0001119  90.1244 269.9876 15.08847383 64392,6917.858,95.437,540.497,538.949,0.0
52346.0,STARLINK-3812,PAYLOAD,2023-06-11 00:46:32,15.08849523,0.0001125,53.2173,20.232,89.799,270.3131,6.8895e-05,8.09e-06,0.0,0 STARLINK-3812,1 52346U 22045R   23162.03231547  .00000809  00000-0  68895-4 0  9999,2 52346  53.2173  20.2320 0001125  89.7990 270.3131 15.08849523 64410,6917.851,95.437,540.495,538.938,0.0
52346.0,STARLINK-3812,PAYLOAD,2023-06-11 10:18:51,15.08839188,0.0001512,53.2169,18.45,87.6976,272.4189,3.8852e-05,3.3e-06,0.0,0 STARLINK-3812,1 52346U 22045R   23162.42976364  .00000330  00000-0  38852-4 0  9994,2 52346  53.2169  18.4500 0001512  87.6976 272.4189 15.08839188 64473,6917.883,95.438,540.794,538.702,0.0
52346.0,STARLINK-3812,PAYLOAD,2023-06-11 15:05:01,15.08833722,0.0001251,53.2169,17.5564,95.727,264.3865,2.0701e-05,4.2e-07,0.0,0 STARLINK-3812,1 52346U 22045R   23162.62848765  .00000042  00000-0  20701-4 0  9993,2 52346  53.2169  17.5564 0001251  95.7270 264.3865 15.08833722 64503,6917.9,95.438,540.63,538.899,0.0
52346.0,STARLINK-3812,PAYLOAD,2023-06-11 21:26:33,15.0884016,0.0001199,53.2166,16.3682,97.8238,262.289,6.8614e-05,8.04e-06,0.0,0 STARLINK-3812,1 52346U 22045R   23162.89344291  .00000804  00000-0  68614-4 0  9998,2 52346  53.2166  16.3682 0001199  97.8238 262.2890 15.08840160 64549,6917.88,95.438,540.574,538.915,0.0
52346.0,STARLINK-3812,PAYLOAD,2023-06-12 00:37:19,15.08842786,0.0001217,53.2167,15.7729,95.7149,264.3982,7.8667e-05,9.64e-06,0.0,0 STARLINK-3812,1 52346U 22045R   23163.02592100  .00000964  00000-0  78667-4 0  9994,2 52346  53.2167  15.7729 0001217  95.7149 264.3982 15.08842786 64567,6917.872,95.437,540.579,538.895,0.0
52346.0,STARLINK-3812,PAYLOAD,2023-06-12 16:31:11,15.08836988,0.0001203,53.2168,12.7992,98.2011,261.9118,4.7994e-05,4.76e-06,0.0,0 STARLINK-3812,1 52346U 22045R   23163.68832649  .00000476  00000-0  47994-4 0  9998,2 52346  53.2168  12.7992 0001203  98.2011 261.9118 15.08836988 64660,6917.89,95.438,540.587,538.922,0.0
52346.0,STARLINK-3812,PAYLOAD,2023-06-12 21:17:20,15.08842653,0.0001196,53.2168,11.907,97.3088,262.804,8.9437e-05,1.136e-05,0.0,0 STARLINK-3812,1 52346U 22045R   23163.88704165  .00001136  00000-0  89437-4 0  9993,2 52346  53.2168  11.9070 0001196  97.3088 262.8040 15.08842653 64696,6917.872,95.437,540.565,538.91,0.0
52346.0,STARLINK-3812,PAYLOAD,2023-06-13 13:11:12,15.08834996,0.0001146,53.217,8.9328,91.1717,268.9406,0.0001252,1.705e-05,0.0,0 STARLINK-3812,1 52346U 22045R   23164.54944625  .00001705  00000-0  12520-3 0  9994,2 52346  53.2170   8.9328 0001146  91.1717 268.9406 15.08834996 64792,6917.896,95.438,540.553,538.968,0.0
52346.0,STARLINK-3812,PAYLOAD,2023-06-14 08:15:50,15.08824992,0.0001035,53.2176,5.3638,102.2345,257.8763,-4.6623e-05,-1.029e-05,0.0,0 STARLINK-3812,1 52346U 22045R   23165.34433870 -.00001029  00000-0 -46623-4 0  9991,2 52346  53.2176   5.3638 0001035 102.2345 257.8763 15.08824992 64913,6917.926,95.439,540.507,539.075,0.0
52346.0,STARLINK-3812,PAYLOAD,2023-06-14 16:12:47,15.08818687,8.18e-05,53.2187,3.876,113.3042,246.8036,-0.00015134,-2.694e-05,0.0,0 STARLINK-3812,1 52346U 22045R   23165.67554973 -.00002694  00000-0 -15134-3 0  9996,2 52346  53.2187   3.8760 0000818 113.3042 246.8036 15.08818687 64969,6917.946,95.439,540.376,539.245,0.0
52346.0,STARLINK-3812,PAYLOAD,2023-06-14 19:23:34,15.0881549,0.0001003,53.2178,3.2834,83.0371,277.0735,-0.00016284,-2.877e-05,0.0,0 STARLINK-3812,1 52346U 22045R   23165.80803521 -.00002877  00000-0 -16284-3 0  9997,2 52346  53.2178   3.2834 0001003  83.0371 277.0735 15.08815490 64983,6917.955,95.439,540.514,539.126,0.0
52346.0,STARLINK-3812,PAYLOAD,2023-06-15 08:06:38,15.08833326,0.0001118,53.218,0.9068,64.8242,295.2866,5.0981e-05,5.24e-06,0.0,0 STARLINK-3812,1 52346U 22045R   23166.33794283  .00000524  00000-0  50981-4 0  9998,2 52346  53.2180   0.9068 0001118  64.8242 295.2866 15.08833326 65065,6917.901,95.438,540.539,538.992,0.0
52346.0,STARLINK-3812,PAYLOAD,2023-06-15 12:52:47,15.08841252,9.86e-05,53.2183,0.0129,67.4556,292.654,0.0001056,1.393e-05,0.0,0 STARLINK-3812,1 52346U 22045R   23166.53665812  .00001393  00000-0  10560-3 0  9998,2 52346  53.2183   0.0129 0000986  67.4556 292.6540 15.08841252 65096,6917.877,95.437,540.424,539.059,0.0
52346.0,STARLINK-3812,PAYLOAD,2023-06-15 19:14:19,15.08848742,0.0001078,53.2179,358.823,95.6651,264.4464,0.00017398,2.483e-05,0.0,0 STARLINK-3812,1 52346U 22045R   23166.80161173  .00002483  00000-0  17398-3 0  9996,2 52346  53.2179 358.8230 0001078  95.6651 264.4464 15.08848742 65138,6917.854,95.437,540.464,538.973,0.0
52346.0,STARLINK-3812,PAYLOAD,2023-06-16 09:32:49,15.08834441,9.01e-05,53.2167,356.1465,119.7072,240.401,0.0012487,0.00019638,0.0,0 STARLINK-3812,1 52346U 22045R   23167.39778955  .00019638  00000-0  12487-2 0  9996,2 52346  53.2167 356.1465 0000901 119.7072 240.4010 15.08834441 65227,6917.897,95.438,540.386,539.139,0.0
52346.0,STARLINK-3812,PAYLOAD,2023-06-16 12:43:33,15.08861769,9.69e-05,53.2169,355.5521,95.2112,264.8991,0.00054637,8.423e-05,0.0,0 STARLINK-3812,1 52346U 22045R   23167.53025301  .00008423  00000-0  54637-3 0  9996,2 52346  53.2169 355.5521 0000969  95.2112 264.8991 15.08861769 65245,6917.814,95.436,540.349,539.009,0.0
52346.0,STARLINK-3812,PAYLOAD,2023-06-16 14:18:56,15.08866253,9.88e-05,53.2166,355.2547,94.2543,265.8562,0.0006224,9.639e-05,0.0,0 STARLINK-3812,1 52346U 22045R   23167.59649160  .00009639  00000-0  62240-3 0  9996,2 52346  53.2166 355.2547 0000988  94.2543 265.8562 15.08866253 65254,6917.8,95.436,540.349,538.982,0.0
